[{"OBJECT_NAME":"CORVUS BC4","OBJECT_ID":"2018-099K","EPOCH":"2026-03-09T15:49:18.108768","MEAN_MOTION":15.1161571,"ECCENTRICITY":0.00080458,"INCLINATION":97.4206,"RA_OF_ASC_NODE":114.5457,"ARG_OF_PERICENTER":356.5821,"MEAN_ANOMALY":3.5354,"EPHEMERIS_TYPE":0,"CLASSIFICATION_TYPE":"U","NORAD_CAT_ID":43767,"ELEMENT_SET_NO":999,"REV_AT_EPOCH":39736,"BSTAR":0.00033979895,"MEAN_MOTION_DOT":5.714e-5,"MEAN_MOTION_DDOT":0},{"OBJECT_NAME":"STARLINK-4772","OBJECT_ID":"2022-119AY","EPOCH":"2026-03-09T21:15:35.911584","MEAN_MOTION":15.08818879,"ECCENTRICITY":0.00013895,"INCLINATION":53.2179,"RA_OF_ASC_NODE":298.3347,"ARG_OF_PERICENTER":80.9598,"MEAN_ANOMALY":279.1551,"EPHEMERIS_TYPE":0,"CLASSIFICATION_TYPE":"U","NORAD_CAT_ID":53932,"ELEMENT_SET_NO":999,"REV_AT_EPOCH":19207,"BSTAR":0.00013629849,"MEAN_MOTION_DOT":1.881e-5,"MEAN_MOTION_DDOT":0}]
